[{"OBJECT_NAME":"OBJECT L","OBJECT_ID":"2023-085L","EPOCH":"2026-03-09T23:02:21.999840","MEAN_MOTION":15.29079976,"ECCENTRICITY":0.0005428,"INCLINATION":97.486,"RA_OF_ASC_NODE":178.8598,"ARG_OF_PERICENTER":50.8528,"MEAN_ANOMALY":309.3193,"EPHEMERIS_TYPE":0,"CLASSIFICATION_TYPE":"U","NORAD_CAT_ID":57014,"ELEMENT_SET_NO":999,"REV_AT_EPOCH":15144,"BSTAR":0.00063462603,"MEAN_MOTION_DOT":0.00017871,"MEAN_MOTION_DDOT":0},{"OBJECT_NAME":"STARLINK-35716","OBJECT_ID":"2025-303AE","EPOCH":"2026-03-09T21:47:40.242624","MEAN_MOTION":15.2758627,"ECCENTRICITY":0.0001579,"INCLINATION":43.0005,"RA_OF_ASC_NODE":309.9063,"ARG_OF_PERICENTER":312.0083,"MEAN_ANOMALY":48.0634,"EPHEMERIS_TYPE":0,"CLASSIFICATION_TYPE":"U","NORAD_CAT_ID":67191,"ELEMENT_SET_NO":999,"REV_AT_EPOCH":1276,"BSTAR":-0.0010705575,"MEAN_MOTION_DOT":-0.0002961,"MEAN_MOTION_DDOT":0}]
